COSMOS 1892             
1 18421U 87088A   20118.55295668  .00000245  00000-0  10708-4 0  9996
2 18421  82.4984 323.9244 0013644 240.0467 119.9413 15.17108261776832
SL-14 R/B               
1 18749U 88001B   20118.29296815  .00000086  00000-0  75350-5 0  9999
2 18749  82.5169  45.5865 0020257 105.5519   7.4895 14.83215875724287
COSMOS 1933             
1 18958U 88020A   20118.15596030  .00000410  00000-0  27818-4 0  9995
2 18958  82.5303 175.1329 0010686 334.9784  25.0923 15.03710496727374
SL-3 R/B                
1 19046U 88032B   20118.52104031  .00000050  00000-0  81072-5 0  9997
2 19046  97.4092 141.8363 0038196  23.7565 336.5413 15.02709071729313
SL-16 R/B               
1 19120U 88039B   20118.15651742 -.00000192  00000-0 -68502-4 0  9993
2 19120  71.0141 276.9127 0021043  20.4543 339.7419 14.19211223654648
COSMOS 1953             
1 19210U 88050A   20118.48411214  .00000807  00000-0  53432-4 0  9997
2 19210  82.5141  99.3042 0011920 298.2299  61.7724 15.05948386713992
SL-8 R/B                
1 19257U 88053B   20118.43857414  .00000007  00000-0  10992-4 0  9998
2 19257  74.0478  94.7858 0019168  86.5968  38.8443 14.37466397668677
COSMOS 1975             
1 19573U 88093A   20118.08987926  .00000733  00000-0  49784-4 0  9993
2 19573  82.5216  53.9281 0013975 345.4223  14.6599 15.04857909695784
SL-14 R/B               
1 19574U 88093B   20118.42183324  .00000074  00000-0  61234-5 0  9995
2 19574  82.5325 247.7501 0020070 270.2948 119.8210 14.83326052683306
SL-16 R/B               
1 19650U 88102B   20118.33187568 -.00000193  00000-0 -73824-4 0  9996
2 19650  71.0008 337.4072 0013236  23.4665 336.7059 14.15791783623646
INTERCOSMOS 24          
1 20261U 89080A   20118.04140026  .00000168  00000-0  46635-4 0  9998
2 20261  82.6060  53.5376 1202644 206.4088 147.0599 12.56105156397546
SL-14 R/B               
1 20262U 89080C   20118.39029361  .00000058  00000-0  10069-4 0  9995
2 20262  82.5889 106.6499 1237800  33.6232 333.7492 12.48938985392180
DELTA 2 R/B(1)          
1 20303U 89085B   20117.88632973  .00002143  00000-0  71125-4 0  9995
2 20303  35.6250 334.4442 0094228  77.4721 283.6528 15.27179747660712
DELTA 1 R/B             
1 20323U 89089B   20118.44172230  .00000021  00000-0  14368-4 0  9998
2 20323  97.0827 272.4418 0072522  32.7315 327.8344 14.48342532585489
ARIANE 40 R/B           
1 20443U 90005H   20118.09586589 -.00000001  00000-0  14177-4 0  9995
2 20443  98.5801 179.9922 0011413 132.5082 227.7070 14.38085983584995
DELTA 2 R/B(1)          
1 20453U 90008B   20118.40606651  .00001396  00000-0  79138-4 0  9992
2 20453  35.6254 197.3193 0281625 238.9062 118.3733 14.85464262603601
COSMOS 2058             
1 20465U 90010A   20118.01508426  .00000141  00000-0  95797-5 0  9993
2 20465  82.4876 322.8486 0015948  19.9055 340.2787 14.97995646620620
SL-14 R/B               
1 20466U 90010B   20118.14178196  .00000058  00000-0  43185-5 0  9996
2 20466  82.5001 114.7996 0021440 142.6087 217.6624 14.81381937611137
SL-14 R/B               
1 20511U 90018B   20118.36721939  .00000075  00000-0  68661-5 0  9993
2 20511  82.5246  60.7307 0015991 287.2641 224.7506 14.80038015605553
HST                     
1 20580U 90037B   20118.57681589  .00000442  00000-0  15894-4 0  9996
2 20580  28.4698 296.1655 0002537 263.6906 171.8713 15.09376884448271
SL-16 R/B               
1 20625U 90046B   20118.38217404  .00000264  00000-0  16187-3 0  9993
2 20625  70.9968 115.3962 0015696 313.5643  46.4175 14.14654386545648
COSMOS 2084             
1 20663U 90055A   20118.45236342 -.00000041  00000-0  13937-4 0  9990
2 20663  62.7955 338.4693 0031425 239.0836 120.7168 14.92077281615744
SL-6 R/B(2)             
1 20666U 90055D   20118.51347172 -.00000060  00000-0  12241-4 0  9992
2 20666  62.7861 254.8109 0037172 328.6144  31.2731 14.92328527617698
SL-8 R/B                
1 20775U 90078B   20118.10754431  .00001168  00000-0  55539-4 0  9999
2 20775  82.9250 268.9629 0573905 353.9284   5.5136 14.34249634498375
SL-8 R/B                
1 21088U 91006B   20118.33118160 -.00000030  00000-0 -45181-4 0  9998
2 21088  82.9401 323.2361 0021264 274.7805 258.6502 13.77142921469175
OKEAN-3                 
1 21397U 91039A   20117.83883502  .00000180  00000-0  14842-4 0  9994
2 21397  82.5240 225.7441 0017301 347.4391  12.6395 14.92914098544560
COSMOS 2151             
1 21422U 91042A   20118.02346709  .00000145  00000-0  11708-4 0  9991
2 21422  82.4995 331.9173 0015342  49.0923 311.1623 14.92124319543217
SL-14 R/B               
1 21423U 91042B   20118.41064978  .00000074  00000-0  67306-5 0  9997
2 21423  82.4951  64.6076 0019071  68.3242 291.9999 14.79788394557156
ERS-1                   
1 21574U 91050A   20118.12667629  .00000040  00000-0  27816-4 0  9997
2 21574  98.5931  71.4817 0034162  80.1392 280.3649 14.37739919507741
ARIANE 40 R/B           
1 21610U 91050F   20118.23004074  .00000015  00000-0  18220-4 0  9990
2 21610  98.4681 187.9659 0004217  65.6803   0.7082 14.40900890510328
INTERCOSMOS 25          
1 21819U 91086A   20118.36063446 -.00000222  00000-0 -50716-4 0  9990
2 21819  82.5988 156.9253 1515096  20.9414 344.7432 12.05167956238137
SL-8 R/B                
1 21876U 92008B   20117.38678137  .00000073  00000-0  59305-4 0  9993
2 21876  82.9284  61.1185 0034930   1.6417 130.3819 13.75655720414712
SL-8 R/B                
1 21938U 92020B   20118.26658722  .00000130  00000-0  11920-3 0  9996
2 21938  82.9269 304.5707 0029817 154.0951  18.7681 13.75279322406630
COSMOS 2219             
1 22219U 92076A   20118.41095975  .00000189  00000-0  12477-3 0  9994
2 22219  71.0576 174.3391 0019878 234.8796 125.0464 14.13636617415600
SL-16 R/B               
1 22220U 92076B   20118.02486056 -.00000251  00000-0 -10205-3 0  9996
2 22220  71.0026  19.8441 0010979 127.2661 323.8649 14.16452713418398
COSMOS 2221             
1 22236U 92080A   20118.18003516  .00000132  00000-0  11643-4 0  9995
2 22236  82.5068 152.1082 0017981 128.5695 231.7137 14.87914150482690
SL-16 R/B               
1 22285U 92093B   20118.19166632  .00000030  00000-0  39910-4 0  9997
2 22285  71.0218 180.0590 0005654 313.4090  46.6561 14.15045696410366
COSMOS 2228             
1 22286U 92094A   20118.34138417  .00000156  00000-0  14192-4 0  9990
2 22286  82.5175 108.1261 0019583 249.6190 110.2924 14.88132599456842
SL-16 R/B               
1 22566U 93016B   20118.14451755  .00000094  00000-0  73140-4 0  9996
2 22566  71.0105  33.4535 0011223 332.6526  27.4005 14.14965521399070
COSMOS 2242             
1 22626U 93024A   20118.11243386  .00000155  00000-0  14137-4 0  9997
2 22626  82.5194 136.4494 0017370 250.0013 109.9335 14.87986781461526
SL-16 R/B               
1 22803U 93059B   20118.49844096  .00000203  00000-0  12503-3 0  9996
2 22803  70.9910 206.6475 0019113 237.4747 122.4530 14.16817616376084
ARIANE 40 R/B           
1 22830U 93061H   20118.13715789 -.00000026  00000-0  71958-5 0  9991
2 22830  98.7706 166.8377 0012068 111.2198 249.0275 14.31448433387486
COSMOS 2278             
1 23087U 94023A   20118.02359516 -.00000284  00000-0 -12525-3 0  9995
2 23087  71.0536 335.1552 0006887  50.8322 309.3411 14.13800625342175
SL-16 R/B               
1 23088U 94023B   20118.35038599 -.00000258  00000-0 -10928-3 0  9993
2 23088  70.9995 248.3796 0005265 294.7030  65.3544 14.14679259343087
SL-16 R/B               
1 23343U 94074B   20118.14479090  .00000017  00000-0  97753-5 0  9999
2 23343  98.0046 171.5823 0005976 325.7061  49.5848 14.76819967370840
SL-16 R/B               
1 23405U 94077B   20118.45374582 -.00000267  00000-0 -11245-3 0  9994
2 23405  70.9831 177.6954 0003453 221.6010 138.4850 14.15221811313147
ERS-2                   
1 23560U 95021A   20118.44882638  .00000560  00000-0  27539-4 0  9999
2 23560  98.5345 265.0019 0003292   9.4565 350.6730 15.23124068334354
ARIANE 40+ R/B          
1 23561U 95021B   20118.37024016  .00000015  00000-0  20237-4 0  9993
2 23561  98.7297 156.7639 0007783  52.8328 317.7977 14.37965328311230
SL-16 R/B               
1 23705U 95058B   20118.41104461  .00000289  00000-0  17324-3 0  9996
2 23705  71.0239 356.0477 0011587 153.5469 206.6248 14.15134266265057
SL-16 R/B               
1 24298U 96051B   20117.81854520  .00000035  00000-0  45266-4 0  9995
2 24298  70.8456  19.3750 0012601  71.5901 288.6588 14.12496095219069
ORBVIEW 2 (SEASTAR)     
1 24883U 97037A   20118.37960855  .00000050  00000-0  34064-4 0  9992
2 24883  98.6039 231.9422 0001273 238.0464 122.0597 14.33550943201393
SL-16 R/B               
1 25400U 98043G   20118.40297475 -.00000004  00000-0  16513-4 0  9990
2 25400  98.6044  55.2814 0010872 120.3522 239.8734 14.25452149133743
SL-16 R/B               
1 25407U 98045B   20118.11656430 -.00000278  00000-0 -11739-3 0  9995
2 25407  71.0141   5.4971 0006036  40.9942 319.1634 14.15800185123818
ISS (ZARYA)             
1 25544U 98067A   20118.68325231 -.00000640  00000-0 -34213-5 0  9992
2 25544  51.6450 238.4286 0001366 199.1228   6.9330 15.49319917224181
SL-8 R/B                
1 25723U 99022C   20117.71577027  .00017031  00000-0  12680-3 0  9990
2 25723  48.4110 288.3151 0003817  97.8996 262.2389 15.72804089169512
CZ-4B R/B               
1 25732U 99025C   20118.15893475 -.00000046  00000-0 -33779-6 0  9995
2 25732  98.9495 146.5261 0037251 358.4474  41.4195 14.17675341 84693
OKEAN-O                 
1 25860U 99039A   20118.48699030  .00000004  00000-0  82947-5 0  9991
2 25860  98.2178 136.5891 0001734  75.7471 284.3931 14.76656869117992
SL-16 R/B               
1 25861U 99039B   20118.51916928  .00000006  00000-0  83144-5 0  9996
2 25861  98.2082 119.6718 0014845 325.6801 146.8617 14.78573714120095
DELTA 2 R/B             
1 25876U 99041E   20118.34183981 -.00000113  00000-0  20906-4 0  9997
2 25876  51.7640 152.1014 0531020 195.0281 163.4325 14.04423733 61466
